[{"Id":"1","Name":"TOLA SALES GROUP","Zip":"78229"},{"Id":"2","Name":"FOUNDATION CORRECTIONS INC","Zip":"94002"},{"Id":"3","Name":"DWIGHT HARRISON VW","Zip":"30078"},{"Id":"4","Name":"DIRECTV","Zip":"38006"},{"Id":"5","Name":"SAINT PAUL RADIOLOGY","Zip":"55109"},{"Id":"6","Name":"PIZZA HUT","Zip":"44667"},{"Id":"7","Name":"LINDA GROUP USA LLC","Zip":"33178"},{"Id":"8","Name":"DIAMOND BLUE POOL SERVICE","Zip":"33316"},{"Id":"9","Name":"PREMIERE MORTGAGE CAPITAL","Zip":"28031"},{"Id":"10","Name":"BOSTON STUDIO INC","Zip":"02119"},{"Id":"11","Name":"A G M DESIGNS","Zip":"77521"},{"Id":"12","Name":"NXP SEMICONDUCTOR INC","Zip":"48377"},{"Id":"13","Name":"JEFFREY ROBERTS H","Zip":"35640"},{"Id":"14","Name":"RINCON MUSICAL","Zip":"07087"},{"Id":"15","Name":"AAA MOVING \u0026 STORAGE","Zip":"28037"},{"Id":"16","Name":"SWIFT CONSTRUCTION","Zip":"45056"},{"Id":"17","Name":"EPICBOARDSHOP","Zip":"84101"},{"Id":"18","Name":"BEAR ZOO LLC","Zip":"78258"},{"Id":"19","Name":"US POST OFFICE","Zip":"57761"},{"Id":"20","Name":"MIDNIGHT FRIENDS LLC","Zip":"19422"},{"Id":"21","Name":"FIG TREE MANOR BED BREAKFAST","Zip":"75801"},{"Id":"22","Name":"PONDEROSA SEPTIC \u0026 GREASE","Zip":"78363"},{"Id":"23","Name":"TIM DIEBALL","Zip":"53115"},{"Id":"24","Name":"MEMDEES RESTAURANT","Zip":"19143"},{"Id":"25","Name":"EPICBOARDSHOP BRANCH","Zip":"00000"},{"Id":"26","Name":"SNELLING \u0026 SNELLING","Zip":"65804"},{"Id":"27","Name":"BISON SECURITY CO INC","Zip":"14609"},{"Id":"28","Name":"HENRIETTA TRANSPORT","Zip":"60606"},{"Id":"29","Name":"FISCHER GROUP THE FISCHER HMS","Zip":"45140"},{"Id":"30","Name":"JCF INTERNATIONAL AIRCRAFT","Zip":"60046"},{"Id":"31","Name":"LEWISGALE INTERNAL MEDICINE","Zip":"24073"},{"Id":"32","Name":"BRYANT FAMILY \u0026 COSMETIC DENTISTRY","Zip":"29651"},{"Id":"33","Name":"JAMES AND KELSEN","Zip":"95338"},{"Id":"34","Name":"ODELLA'S ANTIQUES \u0026 NOSTALGIA","Zip":"95338"},{"Id":"35","Name":"ALL UNDER ONE ROOF","Zip":"01841"},{"Id":"36","Name":"TIM DIEBALL","Zip":"53113"},{"Id":"37","Name":"VANDYKE JACQUELINE L","Zip":"45701"},{"Id":"38","Name":"WALDININ TUBURSKY INC","Zip":"45701"},{"Id":"39","Name":"FOUNTAIN HILLS MEDICAL CLINIC","Zip":"85268"},{"Id":"40","Name":"JEFFREY S BENSON PAINTING","Zip":"34120"},{"Id":"41","Name":"CAMPUS DRY CLEANING","Zip":"44074"},{"Id":"42","Name":"JOHN ALDEN LIFE INSURANCE CO","Zip":"77042"},{"Id":"43","Name":"R \u0026 G FISH LLC","Zip":"77979"},{"Id":"44","Name":"REDBOX","Zip":"17602"}]
